NORAD_CAT_ID,OBJECT_NAME,OBJECT_TYPE,EPOCH,MEAN_MOTION,ECCENTRICITY,INCLINATION,RA_OF_ASC_NODE,ARG_OF_PERICENTER,MEAN_ANOMALY,BSTAR,MEAN_MOTION_DOT,MEAN_MOTION_DDOT,TLE_LINE0,TLE_LINE1,TLE_LINE2,SEMIMAJOR_AXIS,PERIOD,APOGEE,PERIGEE,DECAYED
56470.0,STARLINK-5523,PAYLOAD,2023-07-19 00:56:29,15.69912683,0.0003849,69.9991,50.4218,280.2651,79.811,-1.6778e-05,-2.229e-05,0.0,0 STARLINK-5523,1 56470U 23064Y   23200.03923531 -.00002229  00000-0 -16778-4 0  9990,2 56470  69.9991  50.4218 0003849 280.2651  79.8110 15.69912683 11250,6737.284,91.725,361.742,356.556,0.0
56470.0,STARLINK-5523,PAYLOAD,2023-07-19 17:45:46,15.69918679,0.0004069,70.0001,48.4525,276.5141,83.5592,1.3419e-05,1.401e-05,0.0,0 STARLINK-5523,1 56470U 23064Y   23200.74012027  .00001401  00000-0  13419-4 0  9995,2 56470  70.0001  48.4525 0004069 276.5141  83.5592 15.69918679 11369,6737.267,91.724,361.873,356.39,0.0
56470.0,STARLINK-5523,PAYLOAD,2023-07-21 00:20:48,15.69929729,0.0003355,69.9996,44.8667,263.7014,96.38,4.162e-05,4.796e-05,0.0,0 STARLINK-5523,1 56470U 23064Y   23202.01445150  .00004796  00000-0  41620-4 0  9999,2 56470  69.9996  44.8667 0003355 263.7014  96.3800 15.69929729 11564,6737.235,91.724,361.36,356.84,0.0
56470.0,STARLINK-5523,PAYLOAD,2023-07-24 12:27:10,15.69923343,0.0003834,70.0021,35.0162,261.3646,98.7115,2.8661e-05,3.235e-05,0.0,0 STARLINK-5523,1 56470U 23064Y   23205.51887685  .00003235  00000-0  28661-4 0  9997,2 56470  70.0021  35.0162 0003834 261.3646  98.7115 15.69923343 11768,6737.253,91.724,361.701,356.535,0.0
56470.0,STARLINK-5523,PAYLOAD,2023-07-25 00:41:11,15.69924374,0.0003671,70.0013,33.5808,262.5273,97.5506,3.084e-05,3.497e-05,0.0,0 STARLINK-5523,1 56470U 23064Y   23206.02861041  .00003497  00000-0  30840-4 0  9994,2 56470  70.0013  33.5808 0003671 262.5273  97.5506 15.69924374 11842,6737.25,91.724,361.589,356.642,0.0
56470.0,STARLINK-5523,PAYLOAD,2023-07-26 11:51:29,15.69930491,0.0003398,69.9992,29.4604,267.0133,93.0674,2.4963e-05,2.791e-05,0.0,0 STARLINK-5523,1 56470U 23064Y   23207.49409125  .00002791  00000-0  24963-4 0  9992,2 56470  69.9992  29.4604 0003398 267.0133  93.0674 15.69930491 12074,6737.233,91.724,361.387,356.809,0.0
56470.0,STARLINK-5523,PAYLOAD,2023-07-26 14:54:59,15.69942117,0.0003261,69.9986,29.1004,255.487,104.5964,5.0127e-05,5.823e-05,0.0,0 STARLINK-5523,1 56470U 23064Y   23207.62151898  .00005823  00000-0  50127-4 0  9998,2 56470  69.9986  29.1004 0003261 255.4870 104.5964 15.69942117 12096,6737.2,91.723,361.262,356.868,0.0
56470.0,STARLINK-5523,PAYLOAD,2023-07-27 10:47:46,15.69923448,0.0003968,70.0005,26.7756,272.4168,87.6573,7.7014e-06,7.13e-06,0.0,0 STARLINK-5523,1 56470U 23064Y   23208.44984318  .00000713  00000-0  77014-5 0  9998,2 56470  70.0005  26.7756 0003968 272.4168  87.6573 15.69923448 12577,6737.253,91.724,361.791,356.445,0.0
56470.0,STARLINK-5523,PAYLOAD,2023-07-27 21:30:02,15.69931621,0.0003481,70.0004,25.5203,274.1446,85.9352,4.4167e-05,5.103e-05,0.0,0 STARLINK-5523,1 56470U 23064Y   23208.89585933  .00005103  00000-0  44167-4 0  9997,2 56470  70.0004  25.5203 0003481 274.1446  85.9352 15.69931621 12295,6737.23,91.724,361.44,356.749,0.0
56470.0,STARLINK-5523,PAYLOAD,2023-07-28 11:15:48,15.69924684,0.0003478,69.9994,23.9049,269.143,90.9367,2.8394e-05,3.203e-05,0.0,0 STARLINK-5523,1 56470U 23064Y   23209.46930927  .00003203  00000-0  28394-4 0  9991,2 56470  69.9994  23.9049 0003478 269.1430  90.9367 15.69924684 12386,6737.249,91.724,361.458,356.771,0.0
56470.0,STARLINK-5523,PAYLOAD,2023-07-28 15:51:03,15.69931949,0.0003552,69.9995,23.3678,273.9675,86.1115,8.124e-05,9.57e-05,0.0,0 STARLINK-5523,1 56470U 23064Y   23209.66045921  .00009570  00000-0  81240-4 0  9996,2 56470  69.9995  23.3678 0003552 273.9675  86.1115 15.69931949 12768,6737.229,91.724,361.487,356.701,0.0
56470.0,STARLINK-5523,PAYLOAD,2023-07-28 21:58:04,15.69924489,0.0003671,69.9996,22.6521,274.5679,85.5098,4.6713e-05,5.408e-05,0.0,0 STARLINK-5523,1 56470U 23064Y   23209.91532818  .00005408  00000-0  46713-4 0  9992,2 56470  69.9996  22.6521 0003671 274.5679  85.5098 15.69924489 12800,6737.25,91.724,361.588,356.642,0.0
56470.0,STARLINK-5523,PAYLOAD,2023-07-30 10:40:07,15.69923065,0.0003436,69.9995,18.3518,264.5336,95.5467,1.0774e-06,-8.3e-07,0.0,0 STARLINK-5523,1 56470U 23064Y   23211.44452921 -.00000083  00000-0  10774-5 0  9993,2 56470  69.9995  18.3518 0003436 264.5336  95.5467 15.69923065 13042,6737.254,91.724,361.434,356.804,0.0
56470.0,STARLINK-5523,PAYLOAD,2023-07-30 13:43:37,15.69931143,0.0003171,70.0002,17.9945,257.6081,102.476,1.3693e-05,1.435e-05,0.0,0 STARLINK-5523,1 56470U 23064Y   23211.57195902  .00001435  00000-0  13693-4 0  9993,2 56470  70.0002  17.9945 0003171 257.6081 102.4760 15.69931143 13061,6737.231,91.724,361.232,356.96,0.0
56470.0,STARLINK-5523,PAYLOAD,2023-07-31 11:08:09,15.69918332,0.0003331,70.0002,15.4862,265.5183,94.5633,7.0479e-06,6.35e-06,0.0,0 STARLINK-5523,1 56470U 23064Y   23212.46399984  .00000635  00000-0  70479-5 0  9995,2 56470  70.0002  15.4862 0003331 265.5183  94.5633 15.69918332 13202,6737.268,91.725,361.377,356.888,0.0
56470.0,STARLINK-5523,PAYLOAD,2023-07-31 18:46:54,15.6992959,0.0003215,70.0,14.59,265.4817,94.6011,2.6883e-05,3.022e-05,0.0,0 STARLINK-5523,1 56470U 23064Y   23212.78257893  .00003022  00000-0  26883-4 0  9994,2 56470  70.0000  14.5900 0003215 265.4817  94.6011 15.69929590 13251,6737.235,91.724,361.266,356.934,0.0
56470.0,STARLINK-5523,PAYLOAD,2023-08-01 13:07:56,15.69921585,0.0003454,70.0002,12.4413,269.0878,90.9922,-4.0291e-06,-6.97e-06,0.0,0 STARLINK-5523,1 56470U 23064Y   23213.54718442 -.00000697  00000-0 -40291-5 0  9998,2 56470  70.0002  12.4413 0003454 269.0878  90.9922 15.69921585 13370,6737.258,91.724,361.45,356.796,0.0
56470.0,STARLINK-5523,PAYLOAD,2023-08-02 10:32:28,15.69930377,0.0003453,69.9992,9.9317,269.0857,90.9943,1.4147e-05,1.489e-05,0.0,0 STARLINK-5523,1 56470U 23064Y   23214.43921353  .00001489  00000-0  14147-4 0  9992,2 56470  69.9992   9.9317 0003453 269.0857  90.9943 15.69930377 13513,6737.233,91.724,361.425,356.772,0.0
56470.0,STARLINK-5523,PAYLOAD,2023-08-03 11:00:31,15.69915318,0.0002816,69.9984,7.0667,271.2141,88.8732,3.7697e-06,2.41e-06,0.0,0 STARLINK-5523,1 56470U 23064Y   23215.45869485  .00000241  00000-0  37697-5 0  9993,2 56470  69.9984   7.0667 0002816 271.2141  88.8732 15.69915318 13671,6737.276,91.725,361.038,357.244,0.0
56470.0,STARLINK-5523,PAYLOAD,2023-08-03 18:39:15,15.69925204,0.0003789,69.9966,6.1729,268.8262,91.2499,3.0715e-05,3.482e-05,0.0,0 STARLINK-5523,1 56470U 23064Y   23215.77726607  .00003482  00000-0  30715-4 0  9999,2 56470  69.9966   6.1729 0003789 268.8262  91.2499 15.69925204 13725,6737.248,91.724,361.666,356.56,0.0
56470.0,STARLINK-5523,PAYLOAD,2023-08-04 09:56:47,15.69920758,0.0003552,69.9978,4.379,265.5869,94.4921,-1.7743e-06,-4.26e-06,0.0,0 STARLINK-5523,1 56470U 23064Y   23216.41444042 -.00000426  00000-0 -17743-5 0  9995,2 56470  69.9978   4.3790 0003552 265.5869  94.4921 15.69920758 13826,6737.261,91.724,361.519,356.733,0.0
56470.0,STARLINK-5523,PAYLOAD,2023-08-04 19:07:17,15.69930932,0.0003542,69.9975,3.3045,264.7645,95.3147,8.3922e-06,7.97e-06,0.0,0 STARLINK-5523,1 56470U 23064Y   23216.79673192  .00000797  00000-0  83922-5 0  9997,2 56470  69.9975   3.3045 0003542 264.7645  95.3147 15.69930932 13888,6737.232,91.724,361.483,356.71,0.0
56470.0,STARLINK-5523,PAYLOAD,2023-08-05 10:24:49,15.69923377,0.0003438,69.9974,1.5126,264.3848,95.6956,2.0316e-05,2.231e-05,0.0,0 STARLINK-5523,1 56470U 23064Y   23217.43390174  .00002231  00000-0  20316-4 0  9997,2 56470  69.9974   1.5126 0003438 264.3848  95.6956 15.69923377 13989,6737.253,91.724,361.434,356.802,0.0
56470.0,STARLINK-5523,PAYLOAD,2023-08-05 19:35:21,15.69902267,0.000329,69.998,0.4373,269.3739,90.708,-9.1233e-06,-1.308e-05,0.0,0 STARLINK-5523,1 56470U 23064Y   23217.81621945 -.00001308  00000-0 -91233-5 0  9995,2 56470  69.9980   0.4373 0003290 269.3739  90.7080 15.69902267 14045,6737.314,91.725,361.395,356.962,0.0
56470.0,STARLINK-5523,PAYLOAD,2023-08-06 16:59:52,15.69921403,0.0003398,69.9977,357.9301,266.125,93.9557,4.6984e-06,3.52e-06,0.0,0 STARLINK-5523,1 56470U 23064Y   23218.70824697  .00000352  00000-0  46984-5 0  9992,2 56470  69.9977 357.9301 0003398 266.1250  93.9557 15.69921403 14186,6737.259,91.724,361.413,356.835,0.0
56470.0,STARLINK-5523,PAYLOAD,2023-08-07 09:49:07,15.69937284,0.0003393,69.999,355.9578,267.3158,92.765,2.2194e-05,2.458e-05,0.0,0 STARLINK-5523,1 56470U 23064Y   23219.40911435  .00002458  00000-0  22194-4 0  9992,2 56470  69.9990 355.9578 0003393 267.3158  92.7650 15.69937284 14297,6737.213,91.723,361.364,356.792,0.0
56470.0,STARLINK-5523,PAYLOAD,2023-08-08 08:45:25,15.6991866,0.0003314,69.9974,353.2706,262.7477,97.3342,3.7162e-06,2.34e-06,0.0,0 STARLINK-5523,1 56470U 23064Y   23220.36488143  .00000234  00000-0  37162-5 0  9996,2 56470  69.9974 353.2706 0003314 262.7477  97.3342 15.69918660 14442,6737.267,91.724,361.364,356.899,0.0
56470.0,STARLINK-5523,PAYLOAD,2023-08-08 13:20:40,15.69927528,0.0003445,69.9972,352.7346,266.173,93.9072,1.0724e-05,1.077e-05,0.0,0 STARLINK-5523,1 56470U 23064Y   23220.55602486  .00001077  00000-0  10724-4 0  9995,2 56470  69.9972 352.7346 0003445 266.1730  93.9072 15.69927528 14477,6737.241,91.724,361.427,356.785,0.0
56470.0,STARLINK-5523,PAYLOAD,2023-08-09 12:16:57,15.69920457,0.0003476,69.999,350.0477,278.8321,81.2481,6.2699e-06,5.41e-06,0.0,0 STARLINK-5523,1 56470U 23064Y   23221.51177901  .00000541  00000-0  62699-5 0  9995,2 56470  69.9990 350.0477 0003476 278.8321  81.2481 15.69920457 14628,6737.262,91.724,361.468,356.785,0.0
56470.0,STARLINK-5523,PAYLOAD,2023-08-09 18:23:58,15.69913126,0.0003593,69.9986,349.3314,273.4462,86.6323,-4.0666e-06,-7.02e-06,0.0,0 STARLINK-5523,1 56470U 23064Y   23221.76665078 -.00000702  00000-0 -40666-5 0  9990,2 56470  69.9986 349.3314 0003593 273.4462  86.6323 15.69913126 14664,6737.283,91.725,361.568,356.727,0.0
